OBJECT_NAME,OBJECT_ID,EPOCH,MEAN_MOTION,ECCENTRICITY,INCLINATION,RA_OF_ASC_NODE,ARG_OF_PERICENTER,MEAN_ANOMALY,EPHEMERIS_TYPE,CLASSIFICATION_TYPE,NORAD_CAT_ID,ELEMENT_SET_NO,REV_AT_EPOCH,BSTAR,MEAN_MOTION_DOT,MEAN_MOTION_DDOT
SUOMI NPP,2011-061A,2026-06-19T21:04:22.780416,14.19517888,.0001382,98.7953,111.7357,0.4727,359.6450,0,U,37849,999,75882,.49484E-4,.6E-6,0
YAOGAN-12,2011-066B,2026-06-19T19:43:47.991072,15.26624159,.0008987,97.1137,209.2667,205.6330,154.4465,0,U,37875,999,81244,.14815E-3,.3816E-4,0
BEIDOU-2 M4,2012-018B,2026-06-19T06:27:06.904224,1.86229271,.0011331,55.6560,304.0191,275.2642,84.5989,0,U,38251,999,9598,0,-.82E-6,0
ARIRANG-3 (KOMPSAT-3),2012-025B,2026-06-19T20:07:14.581344,14.62208082,.0006743,98.1172,128.2525,102.7402,257.4554,0,U,38338,999,75173,.73767E-4,.325E-5,0
METOP-B,2012-049A,2026-06-19T20:44:52.196064,14.21440772,.0002031,98.6503,222.3101,12.3178,347.8049,0,U,38771,999,71364,.48775E-4,.63E-6,0
SJ-9A,2012-056A,2026-06-19T20:36:44.542368,14.85482665,.0024057,97.6709,142.7137,247.3043,112.5629,0,U,38860,999,69998,.87507E-4,.706E-5,0
COSMOS 2484 (RODNIK-S 6),2013-001C,2026-06-19T19:15:24.183072,12.42939314,.0026765,82.5005,220.2670,31.0294,329.2360,0,U,39059,999,60888,-.85689E-4,-.2E-7,0
SARAL,2013-009A,2026-06-19T20:01:09.638976,14.32856480,.0000629,98.5558,357.3678,289.6456,70.4660,0,U,39086,999,69598,.36396E-4,.56E-6,0
STRAND-1,2013-009E,2026-06-19T10:09:20.022624,14.37164306,.00078423,98.3923,350.6024,217.8573,142.2063,0,U,39090,999,69738,.7937905E-4,.193E-5,0
BRITE-AUSTRIA,2013-009F,2026-06-19T07:08:40.083360,14.36542792,.00092316,98.3996,349.6811,229.4697,130.5686,0,U,39091,999,69735,.5550137E-4,.12E-5,0
GAOFEN-1,2013-018A,2026-06-19T20:11:42.082656,14.76539801,.0015692,97.9091,242.8557,256.9632,102.9826,0,U,39150,999,70863,.99909E-4,.647E-5,0
NEE-01 PEGASO,2013-018B,2026-06-19T08:12:56.297664,14.93669357,.00133076,98.1228,314.5632,152.2100,207.9832,0,U,39151,999,71102,.24785549E-3,.2563E-4,0
PROBA-V,2013-021A,2026-06-19T12:12:43.551360,14.23597276,.00052215,98.3584,149.0009,117.9671,242.2038,0,U,39159,999,68144,.36405236E-4,.42E-6,0
ARIRANG-5 (KOMPSAT-5),2013-042A,2026-06-19T19:50:07.238688,15.04495283,.0005432,97.6201,357.4899,114.3542,245.8251,0,U,39227,999,70425,.40624E-4,.508E-5,0
GONETS-M 5,2013-048A,2026-06-19T20:26:36.009888,12.42891663,.0016213,82.4833,341.7201,204.3307,155.7009,0,U,39249,999,57921,-.29435E-3,-.31E-6,0
GONETS-M 7,2013-048C,2026-06-19T19:33:11.392416,12.42914178,.0016977,82.4900,344.6670,205.8230,154.2004,0,U,39251,999,57916,-.81266E-3,-.103E-5,0
FENGYUN 3C,2013-052A,2026-06-19T19:12:06.923232,14.15755598,.0015094,98.4987,144.5549,20.4550,339.7226,0,U,39260,999,65893,.4945E-4,.56E-6,0
CASSIOPE,2013-055A,2026-06-19T18:51:54.378720,15.25412976,.0291904,80.9138,63.5653,53.7394,309.0430,0,U,39265,999,66806,.48667E-3,.44711E-3,-.48271E-6
APRIZESAT 7,2013-066A,2026-06-19T20:05:48.742080,14.91568577,.0035208,97.7709,124.0192,200.2744,159.7079,0,U,39416,999,68162,.78478E-4,.738E-5,0
ZACUBE-1 (TSHEPISOSAT),2013-066B,2026-06-19T20:57:53.011872,15.01200695,.0041142,97.8072,133.2244,238.4209,121.2995,0,U,39417,999,68113,.18363E-3,.2333E-4,0
APRIZESAT 8,2013-066K,2026-06-19T08:39:56.195712,14.87656055,.00443621,97.8220,117.7985,279.1592,80.4607,0,U,39425,999,67999,.82014905E-4,.702E-5,0
