SUOMI NPP               
1 37849U 11061A   26170.87804144  .00000060  00000+0  49484-4 0  9990
2 37849  98.7953 111.7357 0001382   0.4727 359.6450 14.19517888758827
YAOGAN-12               
1 37875U 11066B   26170.82208323  .00003816  00000+0  14815-3 0  9997
2 37875  97.1137 209.2667 0008987 205.6330 154.4465 15.26624159812442
BEIDOU-2 M4             
1 38251U 12018B   26170.26882991 -.00000082  00000+0  00000+0 0  9991
2 38251  55.6560 304.0191 0011331 275.2642  84.5989  1.86229271 95985
ARIRANG-3 (KOMPSAT-3)   
1 38338U 12025B   26170.83836321  .00000325  00000+0  73767-4 0  9998
2 38338  98.1172 128.2525 0006743 102.7402 257.4554 14.62208082751734
METOP-B                 
1 38771U 12049A   26170.86449301  .00000063  00000+0  48775-4 0  9996
2 38771  98.6503 222.3101 0002031  12.3178 347.8049 14.21440772713646
SJ-9A                   
1 38860U 12056A   26170.85884887  .00000706  00000+0  87507-4 0  9994
2 38860  97.6709 142.7137 0024057 247.3043 112.5629 14.85482665699987
COSMOS 2484 (RODNIK-S 6)
1 39059U 13001C   26170.80236323 -.00000002  00000+0 -85689-4 0  9997
2 39059  82.5005 220.2670 0026765  31.0294 329.2360 12.42939314608885
SARAL                   
1 39086U 13009A   26170.83413934  .00000056  00000+0  36396-4 0  9991
2 39086  98.5558 357.3678 0000629 289.6456  70.4660 14.32856480695985
STRAND-1                
1 39090U 13009E   26170.42314841  .00000193  00000+0  79379-4 0  9998
2 39090  98.3923 350.6024 0007842 217.8573 142.2063 14.37164306697387
BRITE-AUSTRIA           
1 39091U 13009F   26170.29768615  .00000120  00000+0  55501-4 0  9997
2 39091  98.3996 349.6811 0009231 229.4697 130.5686 14.36542792697356
GAOFEN-1                
1 39150U 13018A   26170.84145929  .00000647  00000+0  99909-4 0  9995
2 39150  97.9091 242.8557 0015692 256.9632 102.9826 14.76539801708630
NEE-01 PEGASO           
1 39151U 13018B   26170.34231826  .00002563  00000+0  24786-3 0  9992
2 39151  98.1228 314.5632 0013307 152.2100 207.9832 14.93669357711025
PROBA-V                 
1 39159U 13021A   26170.50883740  .00000042  00000+0  36405-4 0  9992
2 39159  98.3584 149.0009 0005221 117.9671 242.2038 14.23597276681441
ARIRANG-5 (KOMPSAT-5)   
1 39227U 13042A   26170.82647267  .00000508  00000+0  40624-4 0  9993
2 39227  97.6201 357.4899 0005432 114.3542 245.8251 15.04495283704255
GONETS-M 5              
1 39249U 13048A   26170.85180567 -.00000031  00000+0 -29435-3 0  9990
2 39249  82.4833 341.7201 0016213 204.3307 155.7009 12.42891663579210
GONETS-M 7              
1 39251U 13048C   26170.81471519 -.00000103  00000+0 -81266-3 0  9999
2 39251  82.4900 344.6670 0016977 205.8230 154.2004 12.42914178579168
FENGYUN 3C              
1 39260U 13052A   26170.80008013  .00000056  00000+0  49450-4 0  9993
2 39260  98.4987 144.5549 0015094  20.4550 339.7226 14.15755598658937
CASSIOPE                
1 39265U 13055A   26170.78604605  .00044711 -48271-6  48667-3 0  9991
2 39265  80.9138  63.5653 0291904  53.7394 309.0430 15.25412976668067
APRIZESAT 7             
1 39416U 13066A   26170.83736970  .00000738  00000+0  78478-4 0  9993
2 39416  97.7709 124.0192 0035208 200.2744 159.7079 14.91568577681624
ZACUBE-1 (TSHEPISOSAT)  
1 39417U 13066B   26170.87353023  .00002333  00000+0  18363-3 0  9991
2 39417  97.8072 133.2244 0041142 238.4209 121.2995 15.01200695681135
APRIZESAT 8             
1 39425U 13066K   26170.36106708  .00000702  00000+0  82015-4 0  9994
2 39425  97.8220 117.7985 0044362 279.1592  80.4607 14.87656055679997
